STARLINK-32537          
1 61923U 24207M   26068.08050523  .00028705  00000+0  10489-2 0  9996
2 61923  42.9996 289.0978 0001558 273.0497  87.0176 15.27569636 74589
FLOCK 4G-18             
1 62680U 25009BZ  26068.19114186  .00011766  00000+0  44319-3 0  9995
2 62680  97.4054 150.5008 0004100 335.7331  24.3715 15.27241676121267
