[{"OBJECT_NAME":"STARLINK-32537","OBJECT_ID":"2024-207M","EPOCH":"2026-03-09T01:55:55.651872","MEAN_MOTION":15.27569636,"ECCENTRICITY":0.00015585,"INCLINATION":42.9996,"RA_OF_ASC_NODE":289.0978,"ARG_OF_PERICENTER":273.0497,"MEAN_ANOMALY":87.0176,"EPHEMERIS_TYPE":0,"CLASSIFICATION_TYPE":"U","NORAD_CAT_ID":61923,"ELEMENT_SET_NO":999,"REV_AT_EPOCH":7458,"BSTAR":0.0010489138,"MEAN_MOTION_DOT":0.00028705,"MEAN_MOTION_DDOT":0},{"OBJECT_NAME":"FLOCK 4G-18","OBJECT_ID":"2025-009BZ","EPOCH":"2026-03-09T04:35:14.656704","MEAN_MOTION":15.27241676,"ECCENTRICITY":0.00041001,"INCLINATION":97.4054,"RA_OF_ASC_NODE":150.5008,"ARG_OF_PERICENTER":335.7331,"MEAN_ANOMALY":24.3715,"EPHEMERIS_TYPE":0,"CLASSIFICATION_TYPE":"U","NORAD_CAT_ID":62680,"ELEMENT_SET_NO":999,"REV_AT_EPOCH":12126,"BSTAR":0.0004431856,"MEAN_MOTION_DOT":0.00011766,"MEAN_MOTION_DDOT":0}]
